start=new Date('2023-06-13T00:00:00.000Z').valueOf();
sats=[{"PERIOD":"95.838","TLE_LINE1":"1 55615U 23020AY  23163.89180615 -.00000356  00000-0 -11275-4 0  9998","ECCENTRICITY":"0.00012930","FILE":"3931605","CLASSIFICATION_TYPE":"U","SITE":"AFETR","MEAN_MOTION":"15.02536449","REF_FRAME":"TEME","TIME_SYSTEM":"UTC","INCLINATION":"43.0052","OBJECT_ID":"2023-020AY","MEAN_MOTION_DDOT":"0.0000000000000","MEAN_ELEMENT_THEORY":"SGP4","EPOCH":"2023-06-12T21:24:12.051360","OBJECT_TYPE":"PAYLOAD","ELEMENT_SET_NO":"999","GP_ID":"233803025","OBJECT_NAME":"STARLINK-5712","REV_AT_EPOCH":"1852","SEMIMAJOR_AXIS":"6937.215","BSTAR":"-0.00001127500000","EPHEMERIS_TYPE":"0","LAUNCH_DATE":"2023-02-12","RCS_SIZE":"LARGE","NORAD_CAT_ID":"55615","APOAPSIS":"559.977","DECAY_DATE":null,"COUNTRY_CODE":"US","CENTER_NAME":"EARTH","PERIAPSIS":"558.183","MEAN_MOTION_DOT":"-0.00000356","ARG_OF_PERICENTER":"264.1045","RA_OF_ASC_NODE":"29.6915","TLE_LINE2":"2 55615  43.0052  29.6915 0001293 264.1045  95.9650 15.02536449 18526","MEAN_ANOMALY":"95.9650"},{"MEAN_MOTION_DOT":"-0.00000162","CENTER_NAME":"EARTH","PERIAPSIS":"558.041","RA_OF_ASC_NODE":"29.6252","TLE_LINE2":"2 55616  43.0043  29.6252 0001499 279.9003  80.1671 15.02536069 18524","MEAN_ANOMALY":"80.1671","ARG_OF_PERICENTER":"279.9003","BSTAR":"0.00000309610000","LAUNCH_DATE":"2023-02-12","EPHEMERIS_TYPE":"0","RCS_SIZE":"LARGE","REV_AT_EPOCH":"1852","OBJECT_NAME":"STARLINK-5710","SEMIMAJOR_AXIS":"6937.216","NORAD_CAT_ID":"55616","APOAPSIS":"560.121","DECAY_DATE":null,"COUNTRY_CODE":"US","OBJECT_TYPE":"PAYLOAD","INCLINATION":"43.0043","MEAN_MOTION_DDOT":"0.0000000000000","OBJECT_ID":"2023-020AZ","MEAN_ELEMENT_THEORY":"SGP4","EPOCH":"2023-06-12T21:11:24.856512","GP_ID":"233803275","ELEMENT_SET_NO":"999","FILE":"3931605","ECCENTRICITY":"0.00014990","CLASSIFICATION_TYPE":"U","SITE":"AFETR","PERIOD":"95.838","TLE_LINE1":"1 55616U 23020AZ  23163.88292658 -.00000162  00000-0  30961-5 0  9997","REF_FRAME":"TEME","TIME_SYSTEM":"UTC","MEAN_MOTION":"15.02536069"},{"SEMIMAJOR_AXIS":"6937.208","OBJECT_NAME":"STARLINK-5721","REV_AT_EPOCH":"1852","LAUNCH_DATE":"2023-02-12","EPHEMERIS_TYPE":"0","RCS_SIZE":"LARGE","BSTAR":"0.00012171000000","APOAPSIS":"560.099","DECAY_DATE":null,"COUNTRY_CODE":"US","NORAD_CAT_ID":"55617","PERIAPSIS":"558.047","CENTER_NAME":"EARTH","MEAN_MOTION_DOT":"0.00001441","ARG_OF_PERICENTER":"273.5288","MEAN_ANOMALY":"86.5385","RA_OF_ASC_NODE":"29.6658","TLE_LINE2":"2 55617  43.0040  29.6658 0001479 273.5288  86.5385 15.02538761 18528","PERIOD":"95.838","TLE_LINE1":"1 55617U 23020BA  23163.88847724  .00001441  00000-0  12171-3 0  9999","SITE":"AFETR","FILE":"3931605","ECCENTRICITY":"0.00014790","CLASSIFICATION_TYPE":"U","MEAN_MOTION":"15.02538761","TIME_SYSTEM":"UTC","REF_FRAME":"TEME","MEAN_ELEMENT_THEORY":"SGP4","EPOCH":"2023-06-12T21:19:24.433536","INCLINATION":"43.0040","MEAN_MOTION_DDOT":"0.0000000000000","OBJECT_ID":"2023-020BA","OBJECT_TYPE":"PAYLOAD","ELEMENT_SET_NO":"999","GP_ID":"233804027"},{"OBJECT_TYPE":"PAYLOAD","OBJECT_ID":"2023-020BB","MEAN_MOTION_DDOT":"0.0000000000000","INCLINATION":"43.0049","EPOCH":"2023-06-12T22:43:56.702784","MEAN_ELEMENT_THEORY":"SGP4","GP_ID":"233804272","ELEMENT_SET_NO":"999","CLASSIFICATION_TYPE":"U","FILE":"3931605","ECCENTRICITY":"0.00013590","SITE":"AFETR","PERIOD":"95.838","TLE_LINE1":"1 55618U 23020BB  23163.94718406 -.00000031  00000-0  12786-4 0  9999","REF_FRAME":"TEME","TIME_SYSTEM":"UTC","MEAN_MOTION":"15.02536333","MEAN_MOTION_DOT":"-0.00000031","CENTER_NAME":"EARTH","PERIAPSIS":"558.138","TLE_LINE2":"2 55618  43.0049  29.2468 0001359 274.4266  85.6421 15.02536333 18531","RA_OF_ASC_NODE":"29.2468","MEAN_ANOMALY":"85.6421","ARG_OF_PERICENTER":"274.4266","BSTAR":"0.00001278600000","RCS_SIZE":"LARGE","LAUNCH_DATE":"2023-02-12","EPHEMERIS_TYPE":"0","OBJECT_NAME":"STARLINK-5717","REV_AT_EPOCH":"1853","SEMIMAJOR_AXIS":"6937.216","NORAD_CAT_ID":"55618","COUNTRY_CODE":"US","DECAY_DATE":null,"APOAPSIS":"560.023"},{"ARG_OF_PERICENTER":"275.2795","MEAN_ANOMALY":"84.7887","RA_OF_ASC_NODE":"29.5912","TLE_LINE2":"2 55619  43.0049  29.5912 0001403 275.2795  84.7887 15.02536792 18529","PERIAPSIS":"558.106","CENTER_NAME":"EARTH","MEAN_MOTION_DOT":"-0.00000262","APOAPSIS":"560.052","DECAY_DATE":null,"COUNTRY_CODE":"US","NORAD_CAT_ID":"55619","SEMIMAJOR_AXIS":"6937.214","OBJECT_NAME":"STARLINK-5720","REV_AT_EPOCH":"1852","EPHEMERIS_TYPE":"0","LAUNCH_DATE":"2023-02-12","RCS_SIZE":"LARGE","BSTAR":"-0.00000433280000","ELEMENT_SET_NO":"999","GP_ID":"233803525","MEAN_ELEMENT_THEORY":"SGP4","EPOCH":"2023-06-12T21:05:01.409856","INCLINATION":"43.0049","OBJECT_ID":"2023-020BC","MEAN_MOTION_DDOT":"0.0000000000000","OBJECT_TYPE":"PAYLOAD","MEAN_MOTION":"15.02536792","TIME_SYSTEM":"UTC","REF_FRAME":"TEME","TLE_LINE1":"1 55619U 23020BC  23163.87848854 -.00000262  00000-0 -43328-5 0  9997","PERIOD":"95.838","SITE":"AFETR","FILE":"3931605","ECCENTRICITY":"0.00014030","CLASSIFICATION_TYPE":"U"},{"PERIOD":"95.838","TLE_LINE1":"1 55620U 23020BD  23163.93941304  .00002300  00000-0  18525-3 0  9992","CLASSIFICATION_TYPE":"U","FILE":"3931605","ECCENTRICITY":"0.00013950","SITE":"AFETR","MEAN_MOTION":"15.02542899","REF_FRAME":"TEME","TIME_SYSTEM":"UTC","MEAN_MOTION_DDOT":"0.0000000000000","OBJECT_ID":"2023-020BD","INCLINATION":"43.0044","EPOCH":"2023-06-12T22:32:45.286656","MEAN_ELEMENT_THEORY":"SGP4","OBJECT_TYPE":"PAYLOAD","ELEMENT_SET_NO":"999","GP_ID":"233803775","REV_AT_EPOCH":"1853","OBJECT_NAME":"STARLINK-5718","SEMIMAJOR_AXIS":"6937.195","BSTAR":"0.00018525000000","RCS_SIZE":"LARGE","LAUNCH_DATE":"2023-02-12","EPHEMERIS_TYPE":"0","NORAD_CAT_ID":"55620","COUNTRY_CODE":"US","APOAPSIS":"560.028","DECAY_DATE":null,"CENTER_NAME":"EARTH","PERIAPSIS":"558.093","MEAN_MOTION_DOT":"0.00002300","ARG_OF_PERICENTER":"263.9604","TLE_LINE2":"2 55620  43.0044  29.1857 0001395 263.9604  96.1079 15.02542899 18539","RA_OF_ASC_NODE":"29.1857","MEAN_ANOMALY":"96.1079"},{"DECAY_DATE":null,"APOAPSIS":"560.149","COUNTRY_CODE":"US","NORAD_CAT_ID":"55621","SEMIMAJOR_AXIS":"6937.224","REV_AT_EPOCH":"1852","OBJECT_NAME":"STARLINK-5709","EPHEMERIS_TYPE":"0","LAUNCH_DATE":"2023-02-12","RCS_SIZE":"LARGE","BSTAR":"-0.00002154800000","ARG_OF_PERICENTER":"269.1916","MEAN_ANOMALY":"90.8751","RA_OF_ASC_NODE":"29.6494","TLE_LINE2":"2 55621  43.0056  29.6494 0001528 269.1916  90.8751 15.02533681 18523","PERIAPSIS":"558.029","CENTER_NAME":"EARTH","MEAN_MOTION_DOT":"-0.00000495","MEAN_MOTION":"15.02533681","TIME_SYSTEM":"UTC","REF_FRAME":"TEME","PERIOD":"95.838","TLE_LINE1":"1 55621U 23020BE  23163.88625832 -.00000495  00000-0 -21548-4 0  9997","SITE":"AFETR","ECCENTRICITY":"0.00015280","FILE":"3931605","CLASSIFICATION_TYPE":"U","ELEMENT_SET_NO":"999","GP_ID":"233804527","MEAN_ELEMENT_THEORY":"SGP4","EPOCH":"2023-06-12T21:16:12.718848","INCLINATION":"43.0056","MEAN_MOTION_DDOT":"0.0000000000000","OBJECT_ID":"2023-020BE","OBJECT_TYPE":"PAYLOAD"},{"REF_FRAME":"TEME","TIME_SYSTEM":"UTC","MEAN_MOTION":"15.02536676","CLASSIFICATION_TYPE":"U","FILE":"3931605","ECCENTRICITY":"0.00014030","SITE":"AFETR","TLE_LINE1":"1 55622U 23020BF  23163.87515922 -.00000729  00000-0 -38873-4 0  9994","PERIOD":"95.838","GP_ID":"233804772","ELEMENT_SET_NO":"999","OBJECT_TYPE":"PAYLOAD","OBJECT_ID":"2023-020BF","MEAN_MOTION_DDOT":"0.0000000000000","INCLINATION":"43.0053","EPOCH":"2023-06-12T21:00:13.756608","MEAN_ELEMENT_THEORY":"SGP4","NORAD_CAT_ID":"55622","COUNTRY_CODE":"US","APOAPSIS":"560.053","DECAY_DATE":null,"BSTAR":"-0.00003887300000","RCS_SIZE":"LARGE","LAUNCH_DATE":"2023-02-12","EPHEMERIS_TYPE":"0","REV_AT_EPOCH":"1852","OBJECT_NAME":"STARLINK-5702","SEMIMAJOR_AXIS":"6937.214","TLE_LINE2":"2 55622  43.0053  29.5664 0001403 274.2575  85.8107 15.02536676 18525","RA_OF_ASC_NODE":"29.5664","MEAN_ANOMALY":"85.8107","ARG_OF_PERICENTER":"274.2575","MEAN_MOTION_DOT":"-0.00000729","CENTER_NAME":"EARTH","PERIAPSIS":"558.106"},{"PERIAPSIS":"558.097","CENTER_NAME":"EARTH","MEAN_MOTION_DOT":"-0.00001808","ARG_OF_PERICENTER":"277.4179","MEAN_ANOMALY":"82.6506","RA_OF_ASC_NODE":"29.1627","TLE_LINE2":"2 55623  43.0050  29.1627 0001379 277.4179  82.6506 15.02545039 18537","SEMIMAJOR_AXIS":"6937.189","REV_AT_EPOCH":"1853","OBJECT_NAME":"STARLINK-5698","LAUNCH_DATE":"2023-02-12","EPHEMERIS_TYPE":"0","RCS_SIZE":"LARGE","BSTAR":"-0.00011873000000","DECAY_DATE":null,"APOAPSIS":"560.010","COUNTRY_CODE":"US","NORAD_CAT_ID":"55623","MEAN_ELEMENT_THEORY":"SGP4","EPOCH":"2023-06-12T22:27:57.693888","INCLINATION":"43.0050","MEAN_MOTION_DDOT":"0.0000000000000","OBJECT_ID":"2023-020BG","OBJECT_TYPE":"PAYLOAD","ELEMENT_SET_NO":"999","GP_ID":"233803026","TLE_LINE1":"1 55623U 23020BG  23163.93608442 -.00001808  00000-0 -11873-3 0  9991","PERIOD":"95.837","SITE":"AFETR","ECCENTRICITY":"0.00013790","FILE":"3931605","CLASSIFICATION_TYPE":"U","MEAN_MOTION":"15.02545039","TIME_SYSTEM":"UTC","REF_FRAME":"TEME"},{"MEAN_MOTION":"14.98333274","TIME_SYSTEM":"UTC","REF_FRAME":"TEME","TLE_LINE1":"1 55628U 23021A   23163.40724796  .00000761  00000-0  71534-4 0  9996","PERIOD":"96.107","SITE":"AFWTR","FILE":"3931287","ECCENTRICITY":"0.00034450","CLASSIFICATION_TYPE":"U","ELEMENT_SET_NO":"999","GP_ID":"233769726","MEAN_ELEMENT_THEORY":"SGP4","EPOCH":"2023-06-12T09:46:26.223744","INCLINATION":"69.9985","OBJECT_ID":"2023-021A","MEAN_MOTION_DDOT":"0.0000000000000","OBJECT_TYPE":"PAYLOAD","DECAY_DATE":null,"APOAPSIS":"574.442","COUNTRY_CODE":"US","NORAD_CAT_ID":"55628","SEMIMAJOR_AXIS":"6950.183","REV_AT_EPOCH":"1831","OBJECT_NAME":"STARLINK-5484","LAUNCH_DATE":"2023-02-17","EPHEMERIS_TYPE":"0","RCS_SIZE":"LARGE","BSTAR":"0.00007153400000","ARG_OF_PERICENTER":"268.6655","MEAN_ANOMALY":"91.4110","RA_OF_ASC_NODE":"209.1295","TLE_LINE2":"2 55628  69.9985 209.1295 0003445 268.6655  91.4110 14.98333274 18319","PERIAPSIS":"569.653","CENTER_NAME":"EARTH","MEAN_MOTION_DOT":"0.00000761"}];
